{
  "norad_id": 67389,
  "name": "HYDRA-2",
  "history": [
    {
      "epoch": "2026-03-28T12:30:32.201856Z",
      "apogee_km": 513.6427765156232,
      "perigee_km": 511.7017733590592,
      "latitude_deg": 1.3349159352642232e-05,
      "longitude_deg": 74.13596396802407,
      "height_km": 516.1342417490686,
      "semi_major_axis_km": 6890.809274937341,
      "eccentricity": 0.00014084,
      "inclination_deg": 97.4597,
      "raan_deg": 87.7106,
      "arg_perigee_deg": 247.3105,
      "mean_anomaly_deg": 112.798,
      "mean_motion_rev_day": 15.17740131
    },
    {
      "epoch": "2026-03-28T23:35:06.226944Z",
      "apogee_km": 513.6444079777402,
      "perigee_km": 511.66675050749745,
      "latitude_deg": 6.408216030733757e-05,
      "longitude_deg": -92.005994024104,
      "height_km": 516.1811857167147,
      "semi_major_axis_km": 6890.792579242619,
      "eccentricity": 0.0001435,
      "inclination_deg": 97.4596,
      "raan_deg": 88.1653,
      "arg_perigee_deg": 243.7081,
      "mean_anomaly_deg": 116.4006,
      "mean_motion_rev_day": 15.17745647
    },
    {
      "epoch": "2026-03-29T23:19:10.026912Z",
      "apogee_km": 513.6587897368127,
      "perigee_km": 511.5653801648041,
      "latitude_deg": 8.180502816096051e-05,
      "longitude_deg": -88.02196576031672,
      "height_km": 516.272910967565,
      "semi_major_axis_km": 6890.749084950808,
      "eccentricity": 0.0001519,
      "inclination_deg": 97.4595,
      "raan_deg": 89.1399,
      "arg_perigee_deg": 236.7968,
      "mean_anomaly_deg": 123.3121,
      "mean_motion_rev_day": 15.17760017
    },
    {
      "epoch": "2026-03-30T05:38:54.945888Z",
      "apogee_km": 513.6586985357917,
      "perigee_km": 511.55068283777564,
      "latitude_deg": 5.4609535017891574e-05,
      "longitude_deg": 177.04084695311414,
      "height_km": 516.298569380385,
      "semi_major_axis_km": 6890.741690686783,
      "eccentricity": 0.00015296,
      "inclination_deg": 97.4592,
      "raan_deg": 89.3998,
      "arg_perigee_deg": 234.8879,
      "mean_anomaly_deg": 125.2212,
      "mean_motion_rev_day": 15.1776246
    },
    {
      "epoch": "2026-03-30T11:58:39.787968Z",
      "apogee_km": 513.6679207012166,
      "perigee_km": 511.51773736536506,
      "latitude_deg": -5.294319515700152e-05,
      "longitude_deg": 82.10399142474466,
      "height_km": 516.3232328767638,
      "semi_major_axis_km": 6890.729829033291,
      "eccentricity": 0.00015602,
      "inclination_deg": 97.4591,
      "raan_deg": 89.6597,
      "arg_perigee_deg": 233.2842,
      "mean_anomaly_deg": 126.8248,
      "mean_motion_rev_day": 15.17766379
    },
    {
      "epoch": "2026-03-30T23:03:13.130496Z",
      "apogee_km": 513.6769562738173,
      "perigee_km": 511.4673814717271,
      "latitude_deg": 4.221865433104821e-05,
      "longitude_deg": -84.03511985204234,
      "height_km": 516.3660188759336,
      "semi_major_axis_km": 6890.709168872772,
      "eccentricity": 0.00016033,
      "inclination_deg": 97.4591,
      "raan_deg": 90.1144,
      "arg_perigee_deg": 230.2667,
      "mean_anomaly_deg": 129.8426,
      "mean_motion_rev_day": 15.17773205
    },
    {
      "epoch": "2026-03-31T21:12:19.406016Z",
      "apogee_km": 513.7060823684706,
      "perigee_km": 511.3701435051844,
      "latitude_deg": 2.5518621950346248e-05,
      "longitude_deg": -56.311504158676854,
      "height_km": 516.4759911017653,
      "semi_major_axis_km": 6890.675112936828,
      "eccentricity": 0.0001695,
      "inclination_deg": 97.4592,
      "raan_deg": 91.0239,
      "arg_perigee_deg": 223.2817,
      "mean_anomaly_deg": 136.8284,
      "mean_motion_rev_day": 15.17784457
    },
    {
      "epoch": "2026-04-01T17:46:28.903584Z",
      "apogee_km": 513.7252764654777,
      "perigee_km": 511.2915005142622,
      "latitude_deg": 2.4934423833031407e-05,
      "longitude_deg": -4.851227540491703,
      "height_km": 516.5472873095306,
      "semi_major_axis_km": 6890.645388489869,
      "eccentricity": 0.0001766,
      "inclination_deg": 97.4593,
      "raan_deg": 91.8685,
      "arg_perigee_deg": 218.576,
      "mean_anomaly_deg": 141.5348,
      "mean_motion_rev_day": 15.17794278
    },
    {
      "epoch": "2026-04-02T17:30:29.865312Z",
      "apogee_km": 513.7383558718566,
      "perigee_km": 511.18470005739164,
      "latitude_deg": 9.18947017801024e-06,
      "longitude_deg": -0.8552361983015689,
      "height_km": 516.6220923727308,
      "semi_major_axis_km": 6890.598527964624,
      "eccentricity": 0.0001853,
      "inclination_deg": 97.4595,
      "raan_deg": 92.8432,
      "arg_perigee_deg": 212.8138,
      "mean_anomaly_deg": 147.2981,
      "mean_motion_rev_day": 15.17809761
    },
    {
      "epoch": "2026-04-02T22:15:17.916480Z",
      "apogee_km": 513.7279532141374,
      "perigee_km": 511.15308220731913,
      "latitude_deg": -1.892575442886599e-05,
      "longitude_deg": -72.05538485607887,
      "height_km": 516.6295962859874,
      "semi_major_axis_km": 6890.577517710728,
      "eccentricity": 0.00018684,
      "inclination_deg": 97.4596,
      "raan_deg": 93.0382,
      "arg_perigee_deg": 211.1644,
      "mean_anomaly_deg": 148.9479,
      "mean_motion_rev_day": 15.17816703
    },
    {
      "epoch": "2026-04-03T12:29:41.945568Z",
      "apogee_km": 513.7371898058746,
      "perigee_km": 511.08749796117627,
      "latitude_deg": -4.049944973386544e-05,
      "longitude_deg": 74.34448041362535,
      "height_km": 516.6783507556028,
      "semi_major_axis_km": 6890.549343883525,
      "eccentricity": 0.00019227,
      "inclination_deg": 97.4598,
      "raan_deg": 93.623,
      "arg_perigee_deg": 207.1694,
      "mean_anomaly_deg": 152.9439,
      "mean_motion_rev_day": 15.17826012
    },
    {
      "epoch": "2026-04-04T12:13:41.153376Z",
      "apogee_km": 513.7696377303482,
      "perigee_km": 510.96368682899356,
      "latitude_deg": 3.677771742373518e-06,
      "longitude_deg": 78.34779061214087,
      "height_km": 516.7455821479863,
      "semi_major_axis_km": 6890.503662279671,
      "eccentricity": 0.00020361,
      "inclination_deg": 97.4598,
      "raan_deg": 94.5977,
      "arg_perigee_deg": 202.9787,
      "mean_anomaly_deg": 157.1356,
      "mean_motion_rev_day": 15.17841106
    }
  ]
}